STARLINK-6211           
1 57059U 23088M   25033.25335214  .00002164  00000+0  17893-3 0  9998
2 57059  43.0030 123.3343 0001570 291.6646  68.4029 15.01712576 89230
STARLINK-6227           
1 57060U 23088N   25033.25739632  .00001507  00000+0  12925-3 0  9993
2 57060  43.0032 123.3652 0001724 276.9016  83.1630 15.01731922 89233
STARLINK-5869           
1 57061U 23088P   25032.56939519  .00002464  00000+0  19737-3 0  9994
2 57061  43.0013 126.8061 0001022 274.1501  85.9224 15.02541242 89059
STARLINK-5536           
1 57062U 23088Q   25033.49811900  .00000882  00000+0  80323-4 0  9993
2 57062  43.0039 108.7052 0001396 270.4226  89.6456 15.02537757 89429
STARLINK-5832           
1 57063U 23088R   25033.22750868  .00000357  00000+0  41473-4 0  9990
2 57063  43.0025 123.1415 0001037 283.4075  76.6652 15.02545288 89238
STARLINK-5822           
1 57064U 23088S   25033.31651244  .00000467  00000+0  50596-4 0  9997
2 57064  43.0031 122.9454 0001369 264.0990  95.9696 15.01723750 89249
STARLINK-5830           
1 57065U 23088T   25032.57686833  .00000903  00000+0  83523-4 0  9998
2 57065  43.0024 126.8566 0001144 275.2343  84.8369 15.01728916 89137
STARLINK-5827           
1 57066U 23088U   25033.29731943  .00001214  00000+0  10489-3 0  9998
2 57066  43.0030 122.8060 0001250 266.9496  93.1204 15.02537485 89247
STARLINK-5824           
1 57067U 23088V   25033.23333854  .00001105  00000+0  98859-4 0  9999
2 57067  43.0044 123.1813 0001368 274.6970  85.3715 15.01727037 89238
STARLINK-5844           
1 57068U 23088W   25033.22418296  .00000482  00000+0  50743-4 0  9990
2 57068  43.0035 123.1171 0001602 276.5644  83.5016 15.02536315 89238
STARLINK-5821           
1 57069U 23088X   25033.21124186  .00001481  00000+0  12466-3 0  9991
2 57069  43.0015 110.8692 0001009 289.5046  70.5687 15.02530640 89379
STARLINK-5828           
1 57070U 23088Y   25032.23183191  .00001360  00000+0  11575-3 0  9991
2 57070  43.0033 116.4302 0001153 275.0743  84.9968 15.02535541 90126
STARLINK-5834           
1 57071U 23088Z   25033.21900566  .00001111  00000+0  97295-4 0  9992
2 57071  43.0039 110.9271 0001639 249.2776 110.7891 15.02542055 89078
STARLINK-5843           
1 57072U 23088AA  25032.62625750  .00001675  00000+0  13900-3 0  9991
2 57072  43.0024 114.2262 0001393 262.9253  97.1431 15.02537597 89207
STARLINK-5838           
1 57073U 23088AB  25032.56311296  .00001452  00000+0  12253-3 0  9995
2 57073  43.0040 114.6101 0001451 272.2526  87.8150 15.02528689 89277
STARLINK-5773           
1 57074U 23088AC  25032.62255650  .00002640  00000+0  21054-3 0  9993
2 57074  43.0025 126.3410 0001196 272.0209  88.0496 15.02521296 89145
STARLINK-5542           
1 57075U 23088AD  25032.60850327  .00001098  00000+0  96355-4 0  9997
2 57075  43.0015 114.0923 0000995 274.5989  85.4739 15.02534313 89286
STARLINK-6155           
1 57076U 23088AE  25033.55473148 -.00000635  00000+0 -31928-4 0  9998
2 57076  43.0036 109.1522 0001369 261.0141  99.0547 15.02535048 89427
STARLINK-6194           
1 57077U 23088AF  25033.21234758  .00000946  00000+0  85042-4 0  9993
2 57077  43.0001 110.8802 0001223 276.2506  83.8197 15.02543016 89372
STARLINK-6246           
1 57078U 23088AG  25033.22122678  .00002066  00000+0  16790-3 0  9990
2 57078  43.0038 110.9493 0001171 282.4083  77.6628 15.02543421 89371
STARLINK-6245           
1 57079U 23088AH  25033.20124970 -.00000132  00000+0  52735-5 0  9990
2 57079  43.0018 110.7994 0000740 268.7484  91.3273 15.02541519 89361
STARLINK-6243           
1 57080U 23088AJ  25033.21572066 -.00002666  00000+0 -18247-3 0  9999
2 57080  43.0034 110.9066 0001304 299.2189  60.8522 15.02510008 89368
STARLINK-6184           
1 57081U 23088AK  25033.26439902  .00000740  00000+0  69852-4 0  9994
2 57081  43.0023 110.4072 0001111 253.9845 106.0875 15.02541721 89372
STARLINK-6248           
1 57082U 23088AL  25033.27105519  .00001247  00000+0  10734-3 0  9997
2 57082  43.0039 110.4581 0001559 279.9037  80.1629 15.02536741 89377
STARLINK-6253           
1 57083U 23088AM  25033.19015331 -.00000180  00000+0  17230-5 0  9997
2 57083  43.0040 110.7121 0001078 280.0129  80.0592 15.02544356 89362
STARLINK-6240           
1 57084U 23088AN  25032.60073084  .00001953  00000+0  15959-3 0  9994
2 57084  43.0029 114.0287 0001216 271.6221  88.4482 15.02532360 89275
STARLINK-6232           
1 57085U 23088AP  25032.25502815  .00001070  00000+0  94275-4 0  9994
2 57085  43.0041 115.7344 0001302 268.7897  91.2796 15.02528284 90131
STARLINK-6247           
1 57086U 23088AQ  25033.26217583  .00000777  00000+0  72596-4 0  9997
2 57086  43.0027 110.3923 0001083 274.5191  85.5528 15.02540632 89372
STARLINK-6251           
1 57087U 23088AR  25033.24885039  .00000845  00000+0  77633-4 0  9996
2 57087  43.0040 110.2887 0001366 278.9015  81.1673 15.02541250 89373
STARLINK-6257           
1 57088U 23088AS  25033.19236852 -.00000221  00000+0 -12708-5 0  9997
2 57088  43.0020 110.7262 0000918 277.0544  83.0194 15.02544665 89364
STARLINK-6259           
1 57089U 23088AT  25032.57409042  .00001956  00000+0  15983-3 0  9992
2 57089  43.0036 113.8308 0001305 271.4264  88.6428 15.02535205 89276
STARLINK-6254           
1 57090U 23088AU  25033.18126630  .00000911  00000+0  82457-4 0  9992
2 57090  43.0033 110.6419 0001182 265.4609  94.6098 15.02542432 89362
STARLINK-6262           
1 57091U 23088AV  25033.17572466 -.00000247  00000+0 -31878-5 0  9990
2 57091  43.0024 110.5995 0001036 277.3670  82.7055 15.02537615 89367
STARLINK-6225           
1 57092U 23088AW  25032.51316918  .00000349  00000+0  40940-4 0  9996
2 57092  43.0023 114.2292 0001033 262.9002  97.1723 15.02531209 89268
STARLINK-6229           
1 57093U 23088AX  25032.57076083  .00001178  00000+0  10226-3 0  9993
2 57093  43.0022 113.8040 0001104 257.8139 102.2579 15.02536330 89286
STARLINK-6235           
1 57094U 23088AY  25033.23442836  .00000212  00000+0  30732-4 0  9994
2 57094  43.0016 110.1816 0000915 279.6127  80.4612 15.02540204 89379
STARLINK-6132           
1 57101U 23090A   25033.05893753  .00002665  00000+0  21228-3 0  9997
2 57101  43.0041 291.9602 0001165 268.3530  91.7178 15.02529977 89004
STARLINK-6111           
1 57102U 23090B   25033.05339151  .00004756  00000+0  36695-3 0  9992
2 57102  43.0016 291.9149 0001278 258.3315 101.7384 15.02527801 89003
STARLINK-6130           
1 57104U 23090D   25033.05560092 -.00001900  00000+0 -12567-3 0  9996
2 57104  43.0025 291.9284 0001230 266.8009  93.2692 15.02529831 89009
STARLINK-6097           
1 57105U 23090E   25032.78636111  .00000636  00000+0  62124-4 0  9990
2 57105  43.0053 293.3517 0001001 268.5065  91.5663 15.02533487 90107
STARLINK-6118           
1 57106U 23090F   25032.78081175  .00001355  00000+0  11534-3 0  9992
2 57106  43.0033 293.3079 0001207 273.9089  86.1616 15.02534710 90101
STARLINK-6131           
1 57107U 23090G   25033.03341140  .00000040  00000+0  18044-4 0  9997
2 57107  43.0022 291.7610 0001133 263.6233  96.4481 15.02524951 89005
STARLINK-6099           
1 57108U 23090H   25032.78303089 -.00000094  00000+0  81419-5 0  9996
2 57108  43.0019 293.3243 0001224 254.8749 105.1958 15.02541136 90101
STARLINK-6139           
1 57109U 23090J   25032.77303853  .00002146  00000+0  17382-3 0  9990
2 57109  43.0044 293.2494 0001230 269.1892  90.8809 15.02543004 88964
STARLINK-6134           
1 57110U 23090K   25032.78414345 -.00000238  00000+0 -25369-5 0  9990
2 57110  43.0023 293.3308 0000957 260.4559  99.6176 15.02546663 90104
STARLINK-6140           
1 57111U 23090L   25032.76083351 -.00001062  00000+0 -63490-4 0  9990
2 57111  43.0062 293.1554 0001368 268.1167  91.9518 15.02554106 90102
STARLINK-6141           
1 57112U 23090M   25032.77746687  .00004464  00000+0  34522-3 0  9990
2 57112  43.0067 293.2794 0001661 261.2939  98.7715 15.02551330 90102
STARLINK-6142           
1 57113U 23090N   25032.76637853 -.00004121  00000+0 -29010-3 0  9992
2 57113  43.0044 293.1993 0001323 274.7931  85.2760 15.02544508 90104
STARLINK-6125           
1 57114U 23090P   25032.76305021  .00001053  00000+0  92968-4 0  9994
2 57114  43.0021 293.1727 0001057 274.8603  85.2118 15.02540734 90100
STARLINK-6085           
1 57115U 23090Q   25032.75749635  .00001652  00000+0  13734-3 0  9995
2 57115  43.0047 293.1325 0001288 267.0198  93.0497 15.02539039 90105
STARLINK-6129           
1 57116U 23090R   25032.76971445 -.00000298  00000+0 -69980-5 0  9996
2 57116  43.0050 293.2247 0000904 271.0187  89.0552 15.02549751 90100
STARLINK-6148           
1 57117U 23090S   25032.75417239  .00000012  00000+0  15994-4 0  9999
2 57117  43.0021 293.1013 0001220 264.6907  95.3796 15.02537748 90102
STARLINK-6151           
1 57118U 23090T   25033.09207688  .00004225  00000+0  32734-3 0  9993
2 57118  43.0017 291.3404 0000866 280.3362  79.7382 15.02568846 89015
STARLINK-6150           
1 57119U 23090U   25033.14859741 -.00002029  00000+0 -13512-3 0  9998
2 57119  43.0025 290.9005 0001058 249.8468 110.2260 15.02552950 89024
STARLINK-6147           
1 57120U 23090V   25032.75639240  .00000892  00000+0  81055-4 0  9998
2 57120  43.0016 293.1191 0000965 284.7945  75.2791 15.02534755 90104
STARLINK-6152           
1 57121U 23090W   25032.94029202 -.00000415  00000+0 -15624-4 0  9993
2 57121  43.0044 291.9174 0002008 235.6793 124.3859 15.02551523 88996
STARLINK-6149           
1 57122U 23090X   25032.74640293  .00000791  00000+0  73607-4 0  9991
2 57122  43.0030 293.0447 0001143 276.2632  83.8080 15.02538890 90103
STARLINK-6154           
1 57123U 23090Y   25032.73752323  .00000783  00000+0  73065-4 0  9998
2 57123  43.0053 292.9780 0001288 264.8045  95.2650 15.02538024 89914
STARLINK-6146           
1 57124U 23090Z   25033.07656921  .00002394  00000+0  19216-3 0  9991
2 57124  43.0017 291.2206 0001236 274.7467  85.3234 15.02544503 89019
